{
 "generated_at": "2026-06-14T08:41:33Z",
 "sources": [
  {
   "name": "CelesTrak",
   "url": "https://celestrak.org/NORAD/elements/",
   "license": "frei verfügbar; Attribution. Ursprünglich USSPACECOM/Space-Track."
  },
  {
   "name": "GCAT (J. McDowell, planet4589.org)",
   "url": "https://planet4589.org/space/gcat/",
   "license": "CC-BY 4.0"
  }
 ],
 "satellites": [
  {
   "norad": 44390,
   "name": "ICEYE-X4",
   "intl": "2019-038D",
   "group": "sar",
   "gcat": {
    "class": "B",
    "category": "IMG-R",
    "owner": "ICEYE",
    "state": "FI"
   },
   "omm": {
    "OBJECT_NAME": "ICEYE-X4",
    "OBJECT_ID": "2019-038D",
    "EPOCH": "2026-06-13T22:13:50.522880",
    "MEAN_MOTION": 15.29231125,
    "ECCENTRICITY": 0.00117477,
    "INCLINATION": 97.8759,
    "RA_OF_ASC_NODE": 197.6463,
    "ARG_OF_PERICENTER": 320.3862,
    "MEAN_ANOMALY": 39.6517,
    "EPHEMERIS_TYPE": 0,
    "CLASSIFICATION_TYPE": "U",
    "NORAD_CAT_ID": 44390,
    "ELEMENT_SET_NO": 999,
    "REV_AT_EPOCH": 38130,
    "BSTAR": 0.00044704015,
    "MEAN_MOTION_DOT": 0.00012629,
    "MEAN_MOTION_DDOT": 0
   }
  },
  {
   "norad": 60549,
   "name": "ICEYE-X40",
   "intl": "2024-149CK",
   "group": "sar",
   "gcat": {
    "class": "B",
    "category": "IMG-R",
    "owner": "ALYAH",
    "state": "UAE"
   },
   "omm": {
    "OBJECT_NAME": "ICEYE-X40",
    "OBJECT_ID": "2024-149CK",
    "EPOCH": "2026-06-13T19:53:43.786464",
    "MEAN_MOTION": 14.97927632,
    "ECCENTRICITY": 0.0006612,
    "INCLINATION": 97.6814,
    "RA_OF_ASC_NODE": 241.3783,
    "ARG_OF_PERICENTER": 91.6731,
    "MEAN_ANOMALY": 268.5248,
    "EPHEMERIS_TYPE": 0,
    "CLASSIFICATION_TYPE": "U",
    "NORAD_CAT_ID": 60549,
    "ELEMENT_SET_NO": 999,
    "REV_AT_EPOCH": 9957,
    "BSTAR": 0.00021305541,
    "MEAN_MOTION_DOT": 0.00002454,
    "MEAN_MOTION_DDOT": 0
   }
  },
  {
   "norad": 62700,
   "name": "ICEYE-X41",
   "intl": "2025-009CV",
   "group": "sar",
   "gcat": {
    "class": "B",
    "category": "IMG-R",
    "owner": "ICEUS",
    "state": "US"
   },
   "omm": {
    "OBJECT_NAME": "ICEYE-X41",
    "OBJECT_ID": "2025-009CV",
    "EPOCH": "2026-06-13T19:03:55.086912",
    "MEAN_MOTION": 14.96736298,
    "ECCENTRICITY": 0.0002573,
    "INCLINATION": 97.7079,
    "RA_OF_ASC_NODE": 244.3699,
    "ARG_OF_PERICENTER": 61.7533,
    "MEAN_ANOMALY": 298.3948,
    "EPHEMERIS_TYPE": 0,
    "CLASSIFICATION_TYPE": "U",
    "NORAD_CAT_ID": 62700,
    "ELEMENT_SET_NO": 999,
    "REV_AT_EPOCH": 7690,
    "BSTAR": 0.00024660648,
    "MEAN_MOTION_DOT": 0.00002761,
    "MEAN_MOTION_DDOT": 0
   }
  },
  {
   "norad": 62698,
   "name": "ICEYE-X42",
   "intl": "2025-009CT",
   "group": "sar",
   "gcat": {
    "class": "B",
    "category": "IMG-R",
    "owner": "SP42",
    "state": "UAE"
   },
   "omm": {
    "OBJECT_NAME": "ICEYE-X42",
    "OBJECT_ID": "2025-009CT",
    "EPOCH": "2026-06-13T18:52:11.764992",
    "MEAN_MOTION": 14.91850189,
    "ECCENTRICITY": 0.00014046,
    "INCLINATION": 97.74,
    "RA_OF_ASC_NODE": 243.162,
    "ARG_OF_PERICENTER": 89.926,
    "MEAN_ANOMALY": 270.212,
    "EPHEMERIS_TYPE": 0,
    "CLASSIFICATION_TYPE": "U",
    "NORAD_CAT_ID": 62698,
    "ELEMENT_SET_NO": 999,
    "REV_AT_EPOCH": 7678,
    "BSTAR": 0.00022462969,
    "MEAN_MOTION_DOT": 0.00002213,
    "MEAN_MOTION_DDOT": 0
   }
  },
  {
   "norad": 60539,
   "name": "ICEYE-X43",
   "intl": "2024-149BZ",
   "group": "sar",
   "gcat": {
    "class": "B",
    "category": "IMG-R",
    "owner": "FAB/ICEYE",
    "state": "BR"
   },
   "omm": {
    "OBJECT_NAME": "ICEYE-X43",
    "OBJECT_ID": "2024-149BZ",
    "EPOCH": "2026-06-13T18:13:06.701376",
    "MEAN_MOTION": 14.99593439,
    "ECCENTRICITY": 0.00081283,
    "INCLINATION": 97.678,
    "RA_OF_ASC_NODE": 241.7709,
    "ARG_OF_PERICENTER": 94.8366,
    "MEAN_ANOMALY": 265.3786,
    "EPHEMERIS_TYPE": 0,
    "CLASSIFICATION_TYPE": "U",
    "NORAD_CAT_ID": 60539,
    "ELEMENT_SET_NO": 999,
    "REV_AT_EPOCH": 9960,
    "BSTAR": 0.00033382198,
    "MEAN_MOTION_DOT": 0.00004051,
    "MEAN_MOTION_DDOT": 0
   }
  },
  {
   "norad": 62707,
   "name": "ICEYE-X44",
   "intl": "2025-009DC",
   "group": "sar",
   "gcat": {
    "class": "B",
    "category": "IMG-R",
    "owner": "SP42",
    "state": "UAE"
   },
   "omm": {
    "OBJECT_NAME": "ICEYE-X44",
    "OBJECT_ID": "2025-009DC",
    "EPOCH": "2026-06-13T22:36:07.445376",
    "MEAN_MOTION": 14.9599928,
    "ECCENTRICITY": 0.00023771,
    "INCLINATION": 97.7057,
    "RA_OF_ASC_NODE": 244.1188,
    "ARG_OF_PERICENTER": 120.501,
    "MEAN_ANOMALY": 239.6446,
    "EPHEMERIS_TYPE": 0,
    "CLASSIFICATION_TYPE": "U",
    "NORAD_CAT_ID": 62707,
    "ELEMENT_SET_NO": 999,
    "REV_AT_EPOCH": 9945,
    "BSTAR": 0.00026857685,
    "MEAN_MOTION_DOT": 0.00002955,
    "MEAN_MOTION_DDOT": 0
   }
  },
  {
   "norad": 62705,
   "name": "ICEYE-X45",
   "intl": "2025-009DA",
   "group": "sar",
   "gcat": {
    "class": "B",
    "category": "IMG-R",
    "owner": "ICEUS",
    "state": "US"
   },
   "omm": {
    "OBJECT_NAME": "ICEYE-X45",
    "OBJECT_ID": "2025-009DA",
    "EPOCH": "2026-06-13T19:06:12.545856",
    "MEAN_MOTION": 15.00876241,
    "ECCENTRICITY": 0.00018043,
    "INCLINATION": 97.83,
    "RA_OF_ASC_NODE": 251.4547,
    "ARG_OF_PERICENTER": 72.8429,
    "MEAN_ANOMALY": 287.2992,
    "EPHEMERIS_TYPE": 0,
    "CLASSIFICATION_TYPE": "U",
    "NORAD_CAT_ID": 62705,
    "ELEMENT_SET_NO": 999,
    "REV_AT_EPOCH": 7717,
    "BSTAR": -0.00015316274,
    "MEAN_MOTION_DOT": -0.00002008,
    "MEAN_MOTION_DDOT": 0
   }
  },
  {
   "norad": 63258,
   "name": "ICEYE-X46",
   "intl": "2025-052BA",
   "group": "sar",
   "gcat": {
    "class": "B",
    "category": "IMG-R",
    "owner": "ICEYE",
    "state": "FI"
   },
   "omm": {
    "OBJECT_NAME": "ICEYE-X46",
    "OBJECT_ID": "2025-052BA",
    "EPOCH": "2026-06-13T22:37:14.231712",
    "MEAN_MOTION": 14.95287018,
    "ECCENTRICITY": 0.00017372,
    "INCLINATION": 97.6898,
    "RA_OF_ASC_NODE": 56.8989,
    "ARG_OF_PERICENTER": 82.3973,
    "MEAN_ANOMALY": 277.7445,
    "EPHEMERIS_TYPE": 0,
    "CLASSIFICATION_TYPE": "U",
    "NORAD_CAT_ID": 63258,
    "ELEMENT_SET_NO": 999,
    "REV_AT_EPOCH": 6816,
    "BSTAR": 0.000086906662,
    "MEAN_MOTION_DOT": 0.00000901,
    "MEAN_MOTION_DDOT": 0
   }
  },
  {
   "norad": 62389,
   "name": "ICEYE-X47",
   "intl": "2024-247N",
   "group": "sar",
   "gcat": {
    "class": "B",
    "category": "IMG-R",
    "owner": "ICEYE",
    "state": "FI"
   },
   "omm": {
    "OBJECT_NAME": "ICEYE-X47",
    "OBJECT_ID": "2024-247N",
    "EPOCH": "2026-06-13T20:15:47.872512",
    "MEAN_MOTION": 15.13242982,
    "ECCENTRICITY": 0.00020903,
    "INCLINATION": 44.9971,
    "RA_OF_ASC_NODE": 14.8503,
    "ARG_OF_PERICENTER": 236.7507,
    "MEAN_ANOMALY": 123.317,
    "EPHEMERIS_TYPE": 0,
    "CLASSIFICATION_TYPE": "U",
    "NORAD_CAT_ID": 62389,
    "ELEMENT_SET_NO": 999,
    "REV_AT_EPOCH": 8167,
    "BSTAR": 0.00033914115,
    "MEAN_MOTION_DOT": 0.00005877,
    "MEAN_MOTION_DDOT": 0
   }
  },
  {
   "norad": 63253,
   "name": "ICEYE-X48",
   "intl": "2025-052AV",
   "group": "sar",
   "gcat": {
    "class": "B",
    "category": "IMG-R",
    "owner": "ICEUS",
    "state": "US"
   },
   "omm": {
    "OBJECT_NAME": "ICEYE-X48",
    "OBJECT_ID": "2025-052AV",
    "EPOCH": "2026-06-13T17:11:33.888480",
    "MEAN_MOTION": 14.97948809,
    "ECCENTRICITY": 0.00019111,
    "INCLINATION": 97.6888,
    "RA_OF_ASC_NODE": 56.957,
    "ARG_OF_PERICENTER": 153.0258,
    "MEAN_ANOMALY": 207.1064,
    "EPHEMERIS_TYPE": 0,
    "CLASSIFICATION_TYPE": "U",
    "NORAD_CAT_ID": 63253,
    "ELEMENT_SET_NO": 999,
    "REV_AT_EPOCH": 6815,
    "BSTAR": 0.00031372952,
    "MEAN_MOTION_DOT": 0.00003642,
    "MEAN_MOTION_DDOT": 0
   }
  }
 ]
}
