ICEYE-X4                
1 44390U 19038D   26164.92627920  .00012629  00000+0  44704-3 0  9998
2 44390  97.8759 197.6463 0011747 320.3862  39.6517 15.29231125381304
ICEYE-X43               
1 60539U 24149BZ  26164.75910534  .00004051  00000+0  33382-3 0  9997
2 60539  97.6780 241.7709 0008128  94.8366 265.3786 14.99593439 99604
ICEYE-X40               
1 60549U 24149CK  26164.82897901  .00002454  00000+0  21306-3 0  9996
2 60549  97.6814 241.3783 0006612  91.6731 268.5248 14.97927632 99576
ICEYE-X47               
1 62389U 24247N   26164.84430408  .00005877  00000+0  33914-3 0  9996
2 62389  44.9971  14.8503 0002090 236.7507 123.3170 15.13242982 81672
ICEYE-X42               
1 62698U 25009CT  26164.78624728  .00002213  00000+0  22463-3 0  9997
2 62698  97.7400 243.1620 0001404  89.9260 270.2120 14.91850189 76789
ICEYE-X41               
1 62700U 25009CV  26164.79438758  .00002761  00000+0  24661-3 0  9998
2 62700  97.7079 244.3699 0002573  61.7533 298.3948 14.96736298 76905
ICEYE-X45               
1 62705U 25009DA  26164.79597854 -.00002008  00000+0 -15316-3 0  9999
2 62705  97.8300 251.4547 0001804  72.8429 287.2992 15.00876241 77177
ICEYE-X44               
1 62707U 25009DC  26164.94175284  .00002955  00000+0  26858-3 0  9999
2 62707  97.7057 244.1188 0002377 120.5010 239.6446 14.95999280 99452
ICEYE-X48               
1 63253U 25052AV  26164.71636445  .00003642  00000+0  31373-3 0  9992
2 63253  97.6888  56.9570 0001911 153.0258 207.1064 14.97948809 68154
ICEYE-X46               
1 63258U 25052BA  26164.94252583  .00000901  00000+0  86907-4 0  9998
2 63258  97.6898  56.8989 0001737  82.3973 277.7445 14.95287018 68160
